{
  "norad_id": 67850,
  "name": "STARLINK-36840",
  "history": [
    {
      "epoch": "2026-03-28T22:00:01.999584Z",
      "apogee_km": 420.17102018605146,
      "perigee_km": 417.71224496150353,
      "latitude_deg": 5.799075612474322,
      "longitude_deg": 135.77649564649818,
      "height_km": 419.0957917463221,
      "semi_major_axis_km": 6797.078632573777,
      "eccentricity": 0.00018087,
      "inclination_deg": 53.1602,
      "raan_deg": 116.4544,
      "arg_perigee_deg": 91.3843,
      "mean_anomaly_deg": 81.2867,
      "mean_motion_rev_day": 15.49242209
    },
    {
      "epoch": "2026-03-29T04:00:01.999584Z",
      "apogee_km": 419.96029210800407,
      "perigee_km": 417.4155608555284,
      "latitude_deg": 39.3343403177288,
      "longitude_deg": 11.047448894872911,
      "height_km": 421.119716157226,
      "semi_major_axis_km": 6796.824926481766,
      "eccentricity": 0.0001872,
      "inclination_deg": 53.1605,
      "raan_deg": 115.2596,
      "arg_perigee_deg": 90.6529,
      "mean_anomaly_deg": 37.165,
      "mean_motion_rev_day": 15.49328953
    },
    {
      "epoch": "2026-03-30T00:00:01.999296Z",
      "apogee_km": 420.2632340364444,
      "perigee_km": 417.7632421788694,
      "latitude_deg": 52.48445771952187,
      "longitude_deg": 27.850630540459314,
      "height_km": 424.1580800281798,
      "semi_major_axis_km": 6797.150238107657,
      "eccentricity": 0.0001839,
      "inclination_deg": 53.1602,
      "raan_deg": 111.2744,
      "arg_perigee_deg": 88.9857,
      "mean_anomaly_deg": 9.4925,
      "mean_motion_rev_day": 15.49217728
    },
    {
      "epoch": "2026-03-30T05:46:14.140416Z",
      "apogee_km": 419.92325636993974,
      "perigee_km": 417.4443198920926,
      "latitude_deg": -1.6103039974020354e-06,
      "longitude_deg": -164.06873462962713,
      "height_km": 419.5956211111962,
      "semi_major_axis_km": 6796.820788131016,
      "eccentricity": 0.00018236,
      "inclination_deg": 53.1607,
      "raan_deg": 110.1252,
      "arg_perigee_deg": 90.3241,
      "mean_anomaly_deg": 269.7977,
      "mean_motion_rev_day": 15.49330368
    },
    {
      "epoch": "2026-03-30T07:19:07.880448Z",
      "apogee_km": 420.2726215539069,
      "perigee_km": 417.29964737489263,
      "latitude_deg": -8.039180459611447e-06,
      "longitude_deg": 172.33765903065486,
      "height_km": 419.17745508849805,
      "semi_major_axis_km": 6796.9231344643995,
      "eccentricity": 0.0002187,
      "inclination_deg": 53.1607,
      "raan_deg": 109.8191,
      "arg_perigee_deg": 69.8048,
      "mean_anomaly_deg": 290.3196,
      "mean_motion_rev_day": 15.49295374
    },
    {
      "epoch": "2026-03-30T18:09:23.051520Z",
      "apogee_km": 420.2528592716717,
      "perigee_km": 417.0756265626578,
      "latitude_deg": 2.486087222919151e-05,
      "longitude_deg": 7.168689001898505,
      "height_km": 419.3680964253144,
      "semi_major_axis_km": 6796.801242917165,
      "eccentricity": 0.00023373,
      "inclination_deg": 53.1601,
      "raan_deg": 107.6584,
      "arg_perigee_deg": 82.7612,
      "mean_anomaly_deg": 277.3663,
      "mean_motion_rev_day": 15.49337051
    },
    {
      "epoch": "2026-03-31T12:44:04.911360Z",
      "apogee_km": 419.87974181256413,
      "perigee_km": 417.49650305163414,
      "latitude_deg": 1.5584622264742103e-05,
      "longitude_deg": 84.02938367771655,
      "height_km": 419.5503250973346,
      "semi_major_axis_km": 6796.825122432098,
      "eccentricity": 0.00017532,
      "inclination_deg": 53.1602,
      "raan_deg": 103.9565,
      "arg_perigee_deg": 87.9481,
      "mean_anomaly_deg": 272.1729,
      "mean_motion_rev_day": 15.49328886
    },
    {
      "epoch": "2026-04-01T10:24:33.624000Z",
      "apogee_km": 419.74076959572994,
      "perigee_km": 417.52638174217736,
      "latitude_deg": 2.5374757215323296e-05,
      "longitude_deg": 113.70331023176743,
      "height_km": 419.20008611601384,
      "semi_major_axis_km": 6796.770575668953,
      "eccentricity": 0.0001629,
      "inclination_deg": 53.1602,
      "raan_deg": 99.6402,
      "arg_perigee_deg": 72.1896,
      "mean_anomaly_deg": 287.9291,
      "mean_motion_rev_day": 15.49347537
    },
    {
      "epoch": "2026-04-02T17:22:23.913696Z",
      "apogee_km": 420.0522565843976,
      "perigee_km": 417.2859564990349,
      "latitude_deg": 4.760921663770654e-06,
      "longitude_deg": 1.8018106422223052,
      "height_km": 419.7223307836949,
      "semi_major_axis_km": 6796.806106541716,
      "eccentricity": 0.0002035,
      "inclination_deg": 53.1609,
      "raan_deg": 93.4699,
      "arg_perigee_deg": 96.1706,
      "mean_anomaly_deg": 263.9535,
      "mean_motion_rev_day": 15.49335388
    },
    {
      "epoch": "2026-04-02T17:22:23.914560Z",
      "apogee_km": 420.05198471215317,
      "perigee_km": 417.2862283712793,
      "latitude_deg": 8.431299304722994e-06,
      "longitude_deg": 1.8019097667531168,
      "height_km": 419.72230156082094,
      "semi_major_axis_km": 6796.806106541716,
      "eccentricity": 0.00020346,
      "inclination_deg": 53.1609,
      "raan_deg": 93.47,
      "arg_perigee_deg": 96.1706,
      "mean_anomaly_deg": 263.9535,
      "mean_motion_rev_day": 15.49335388
    },
    {
      "epoch": "2026-04-03T16:35:46.610880Z",
      "apogee_km": 419.83938151883194,
      "perigee_km": 417.54069461455856,
      "latitude_deg": -5.0325558149867786e-05,
      "longitude_deg": 7.877364596041421,
      "height_km": 419.4693278086219,
      "semi_major_axis_km": 6796.827038066695,
      "eccentricity": 0.0001691,
      "inclination_deg": 53.1604,
      "raan_deg": 88.8438,
      "arg_perigee_deg": 83.7205,
      "mean_anomaly_deg": 276.3996,
      "mean_motion_rev_day": 15.49328231
    },
    {
      "epoch": "2026-04-04T09:37:34.398048Z",
      "apogee_km": 419.5805642737696,
      "perigee_km": 417.6331612222157,
      "latitude_deg": -1.701113751625013e-05,
      "longitude_deg": 108.3354809907405,
      "height_km": 419.5037782587573,
      "semi_major_axis_km": 6796.743862747992,
      "eccentricity": 0.00014326,
      "inclination_deg": 53.1601,
      "raan_deg": 85.4504,
      "arg_perigee_deg": 89.5052,
      "mean_anomaly_deg": 270.6121,
      "mean_motion_rev_day": 15.49356671
    },
    {
      "epoch": "2026-04-05T08:50:58.111296Z",
      "apogee_km": 419.61149004525396,
      "perigee_km": 417.8592563474449,
      "latitude_deg": 5.892065900228013e-05,
      "longitude_deg": 114.40688599091146,
      "height_km": 419.85666456337873,
      "semi_major_axis_km": 6796.872373196349,
      "eccentricity": 0.0001289,
      "inclination_deg": 53.1609,
      "raan_deg": 80.8243,
      "arg_perigee_deg": 104.2501,
      "mean_anomaly_deg": 255.8652,
      "mean_motion_rev_day": 15.4931273
    },
    {
      "epoch": "2026-04-06T04:58:32.625120Z",
      "apogee_km": 419.4879230484912,
      "perigee_km": 417.8933872805892,
      "latitude_deg": 1.65143440370949e-05,
      "longitude_deg": 167.67668927882428,
      "height_km": 419.9599216973686,
      "semi_major_axis_km": 6796.8276551645395,
      "eccentricity": 0.0001173,
      "inclination_deg": 53.1609,
      "raan_deg": 76.8145,
      "arg_perigee_deg": 117.1127,
      "mean_anomaly_deg": 243.0002,
      "mean_motion_rev_day": 15.4932802
    },
    {
      "epoch": "2026-04-07T08:50:36.306528Z",
      "apogee_km": 420.83875367212204,
      "perigee_km": 416.67823800121005,
      "latitude_deg": -2.6832770726545947e-06,
      "longitude_deg": 102.96534739831914,
      "height_km": 418.1051705630002,
      "semi_major_axis_km": 6796.895495836666,
      "eccentricity": 0.00030606,
      "inclination_deg": 53.1607,
      "raan_deg": 71.263,
      "arg_perigee_deg": 41.5063,
      "mean_anomaly_deg": 318.6178,
      "mean_motion_rev_day": 15.49304824
    },
    {
      "epoch": "2026-04-08T04:58:11.211744Z",
      "apogee_km": 419.39854594100416,
      "perigee_km": 418.0088638904772,
      "latitude_deg": 7.723846935471725e-05,
      "longitude_deg": 156.23190570890287,
      "height_km": 419.47810415271584,
      "semi_major_axis_km": 6796.84070491574,
      "eccentricity": 0.00010223,
      "inclination_deg": 53.1605,
      "raan_deg": 67.2515,
      "arg_perigee_deg": 79.0885,
      "mean_anomaly_deg": 281.024,
      "mean_motion_rev_day": 15.49323558
    },
    {
      "epoch": "2026-04-09T20:00:01.999008Z",
      "apogee_km": 439.05731071432365,
      "perigee_km": 438.0279920869634,
      "latitude_deg": 41.89545140259478,
      "longitude_deg": -36.62741270741526,
      "height_km": 442.2189100391683,
      "semi_major_axis_km": 6816.679651400644,
      "eccentricity": 7.55e-05,
      "inclination_deg": 53.1601,
      "raan_deg": 59.516,
      "arg_perigee_deg": 108.2567,
      "mean_anomaly_deg": 308.0752,
      "mean_motion_rev_day": 15.42564863
    },
    {
      "epoch": "2026-04-10T12:00:02.000160Z",
      "apogee_km": 447.62206028904075,
      "perigee_km": 445.9540486057331,
      "latitude_deg": 18.089385835999927,
      "longitude_deg": -156.45650494182144,
      "height_km": 446.92747831517715,
      "semi_major_axis_km": 6824.925054447386,
      "eccentricity": 0.0001222,
      "inclination_deg": 53.16,
      "raan_deg": 56.3697,
      "arg_perigee_deg": 80.7257,
      "mean_anomaly_deg": 76.4729,
      "mean_motion_rev_day": 15.39770277
    },
    {
      "epoch": "2026-04-11T20:00:01.000224Z",
      "apogee_km": 463.8516620313194,
      "perigee_km": 462.0852885975928,
      "latitude_deg": -17.108647703698953,
      "longitude_deg": -103.19891381167734,
      "height_km": 467.843554560537,
      "semi_major_axis_km": 6841.105475314455,
      "eccentricity": 0.0001291,
      "inclination_deg": 53.1601,
      "raan_deg": 50.1098,
      "arg_perigee_deg": 83.3177,
      "mean_anomaly_deg": 255.3494,
      "mean_motion_rev_day": 15.34310766
    },
    {
      "epoch": "2026-04-13T06:00:02.000160Z",
      "apogee_km": 473.6470225310095,
      "perigee_km": 471.9712811022755,
      "latitude_deg": -41.52413328584033,
      "longitude_deg": -26.659238165856344,
      "height_km": 487.19334769446107,
      "semi_major_axis_km": 6850.946151816643,
      "eccentricity": 0.0001223,
      "inclination_deg": 53.1595,
      "raan_deg": 43.5129,
      "arg_perigee_deg": 101.1908,
      "mean_anomaly_deg": 134.3941,
      "mean_motion_rev_day": 15.31006135
    },
    {
      "epoch": "2026-04-14T20:00:01.999008Z",
      "apogee_km": 473.52011062155907,
      "perigee_km": 471.92934052887995,
      "latitude_deg": -25.79767207755615,
      "longitude_deg": -127.97167654677928,
      "height_km": 481.00117131803574,
      "semi_major_axis_km": 6850.861725575219,
      "eccentricity": 0.0001161,
      "inclination_deg": 53.1593,
      "raan_deg": 36.1496,
      "arg_perigee_deg": 121.3603,
      "mean_anomaly_deg": 205.9701,
      "mean_motion_rev_day": 15.31034436
    },
    {
      "epoch": "2026-04-15T20:00:01.999008Z",
      "apogee_km": 473.4591456118833,
      "perigee_km": 471.97388057024546,
      "latitude_deg": 52.59338405297067,
      "longitude_deg": -35.526075594256575,
      "height_km": 478.53259139957385,
      "semi_major_axis_km": 6850.853513091064,
      "eccentricity": 0.0001084,
      "inclination_deg": 53.1594,
      "raan_deg": 31.499,
      "arg_perigee_deg": 118.8496,
      "mean_anomaly_deg": 323.269,
      "mean_motion_rev_day": 15.31037189
    },
    {
      "epoch": "2026-04-16T19:08:38.501376Z",
      "apogee_km": 473.3104069341862,
      "perigee_km": 472.09917810526804,
      "latitude_deg": -2.322691774611315e-05,
      "longitude_deg": -105.08625559726303,
      "height_km": 473.7751980689541,
      "semi_major_axis_km": 6850.841792519726,
      "eccentricity": 8.84e-05,
      "inclination_deg": 53.1601,
      "raan_deg": 27.0144,
      "arg_perigee_deg": 106.4429,
      "mean_anomaly_deg": 253.6669,
      "mean_motion_rev_day": 15.31041118
    }
  ]
}